$$SOE
2460728.500000000, A.D. 2025-Feb-22 00:00:00.0000, -4.495618840848167E+08, 4.132331952648011E+06, -4.969049822892122E+06,
2460735.500000000, A.D. 2025-Mar-01 00:00:00.0000, -4.498437979953114E+08, -5.791586782116577E+06, -4.243338978320985E+06,
2460742.500000000, A.D. 2025-Mar-08 00:00:00.0000, -4.498858878401570E+08, -1.571246573411531E+07, -3.515366041144530E+06,
2460749.500000000, A.D. 2025-Mar-15 00:00:00.0000, -4.496885631955848E+08, -2.562502965760525E+07, -2.785522821423754E+06,
2460756.500000000, A.D. 2025-Mar-22 00:00:00.0000, -4.492523291322155E+08, -3.552402294830473E+07, -2.054200261426792E+06,
2460763.500000000, A.D. 2025-Mar-29 00:00:00.0000, -4.485777862809658E+08, -4.540421206343094E+07, -1.321788449124642E+06,
2460770.500000000, A.D. 2025-Apr-05 00:00:00.0000, -4.476656292541859E+08, -5.526038703434658E+07, -5.886767155871131E+05,
2460777.500000000, A.D. 2025-Apr-12 00:00:00.0000, -4.465166453433578E+08, -6.508736197297334E+07, 1.447463689306602E+05,
2460784.500000000, A.D. 2025-Apr-19 00:00:00.0000, -4.451317136802657E+08, -7.487997546003386E+07, 8.780930449742377E+05,
2460791.500000000, A.D. 2025-Apr-26 00:00:00.0000, -4.435118045930279E+08, -8.463309102326816E+07, 1.610976418014701E+06,
2460798.500000000, A.D. 2025-May-03 00:00:00.0000, -4.416579790466218E+08, -9.434159768931825E+07, 2.343010507661670E+06,
2460805.500000000, A.D. 2025-May-10 00:00:00.0000, -4.395713881413342E+08, -1.040004106022150E+08, 3.073810290083110E+06,
2460812.500000000, A.D. 2025-May-17 00:00:00.0000, -4.372532726329682E+08, -1.136044717507724E+08, 3.802991727082871E+06,
2460819.500000000, A.D. 2025-May-24 00:00:00.0000, -4.347049623003566E+08, -1.231487508608040E+08, 4.530171761678778E+06,
2460826.500000000, A.D. 2025-May-31 00:00:00.0000, -4.319278747411466E+08, -1.326282461429124E+08, 5.254968267551668E+06,
2460833.500000000, A.D. 2025-Jun-07 00:00:00.0000, -4.289235139948893E+08, -1.420379836931157E+08, 5.977000087867804E+06,
2460840.500000000, A.D. 2025-Jun-14 00:00:00.0000, -4.256934713560410E+08, -1.513730162160280E+08, 6.695887326034814E+06,
2460847.500000000, A.D. 2025-Jun-21 00:00:00.0000, -4.222394271598501E+08, -1.606284243455439E+08, 7.411251509575866E+06,
2460854.500000000, A.D. 2025-Jun-28 00:00:00.0000, -4.185631504133543E+08, -1.697993188007455E+08, 8.122715484725758E+06,
2460861.500000000, A.D. 2025-Jul-05 00:00:00.0000, -4.146664977864954E+08, -1.788808412218016E+08, 8.829903357526720E+06,
2460868.500000000, A.D. 2025-Jul-12 00:00:00.0000, -4.105514131515148E+08, -1.878681644933874E+08, 9.532440525120527E+06,
2460875.500000000, A.D. 2025-Jul-19 00:00:00.0000, -4.062199274793494E+08, -1.967564931340457E+08, 1.022995373299538E+07,
2460882.500000000, A.D. 2025-Jul-26 00:00:00.0000, -4.016741588825302E+08, -2.055410638112811E+08, 1.092207113451760E+07,
2460889.500000000, A.D. 2025-Aug-02 00:00:00.0000, -3.969163127386364E+08, -2.142171459632876E+08, 1.160842234884879E+07,
2460896.500000000, A.D. 2025-Aug-09 00:00:00.0000, -3.919486818698137E+08, -2.227800425441470E+08, 1.228863851429474E+07,
2460903.500000000, A.D. 2025-Aug-16 00:00:00.0000, -3.867736467000127E+08, -2.312250909579242E+08, 1.296235232526782E+07,
2460910.500000000, A.D. 2025-Aug-23 00:00:00.0000, -3.813936750958104E+08, -2.395476641674123E+08, 1.362919802779873E+07,
2460917.500000000, A.D. 2025-Aug-30 00:00:00.0000, -3.758113215601735E+08, -2.477431712656240E+08, 1.428881140222825E+07,
2460924.500000000, A.D. 2025-Sep-06 00:00:00.0000, -3.700292271950166E+08, -2.558070565118287E+08, 1.494082994531378E+07,
2460931.500000000, A.D. 2025-Sep-13 00:00:00.0000, -3.640501221009311E+08, -2.637347993178892E+08, 1.558489320241615E+07,
2460938.500000000, A.D. 2025-Sep-20 00:00:00.0000, -3.578768269399719E+08, -2.715219168331045E+08, 1.622064281557007E+07,
2460945.500000000, A.D. 2025-Sep-27 00:00:00.0000, -3.515122526025164E+08, -2.791639660186318E+08, 1.684772244521022E+07,
2460952.500000000, A.D. 2025-Oct-04 00:00:00.0000, -3.449593999928424E+08, -2.866565446736131E+08, 1.746577779509372E+07,
2460959.500000000, A.D. 2025-Oct-11 00:00:00.0000, -3.382213603039242E+08, -2.939952923577443E+08, 1.807445669788890E+07,
2460966.500000000, A.D. 2025-Oct-18 00:00:00.0000, -3.313013154948329E+08, -3.011758914875095E+08, 1.867340921310073E+07,
2460973.500000000, A.D. 2025-Oct-25 00:00:00.0000, -3.242025388291090E+08, -3.081940685983889E+08, 1.926228772556095E+07,
2460980.500000000, A.D. 2025-Nov-01 00:00:00.0000, -3.169283954330561E+08, -3.150455957605788E+08, 1.984074704231326E+07,
2460987.500000000, A.D. 2025-Nov-08 00:00:00.0000, -3.094823428377299E+08, -3.217262921821997E+08, 2.040844448234358E+07,
2460994.500000000, A.D. 2025-Nov-15 00:00:00.0000, -3.018679313549209E+08, -3.282320260607719E+08, 2.096503994096901E+07,
2461001.500000000, A.D. 2025-Nov-22 00:00:00.0000, -2.940888038824673E+08, -3.345587164645364E+08, 2.151019591008717E+07,
2461008.500000000, A.D. 2025-Nov-29 00:00:00.0000, -2.861486952895363E+08, -3.407023341092046E+08, 2.204357756118602E+07,
2461015.500000000, A.D. 2025-Dec-06 00:00:00.0000, -2.780514336550983E+08, -3.466589011657202E+08, 2.256485308878079E+07,
2461022.500000000, A.D. 2025-Dec-13 00:00:00.0000, -2.698009429203143E+08, -3.524244934699663E+08, 2.307369399877928E+07,
2461029.500000000, A.D. 2025-Dec-20 00:00:00.0000, -2.614012434565330E+08, -3.579952441141036E+08, 2.356977510485402E+07,
2461036.500000000, A.D. 2025-Dec-27 00:00:00.0000, -2.528564516184339E+08, -3.633673458317165E+08, 2.405277454318719E+07,
2461043.500000000, A.D. 2026-Jan-03 00:00:00.0000, -2.441707797377978E+08, -3.685370527955428E+08, 2.452237388937084E+07,
2461050.500000000, A.D. 2026-Jan-10 00:00:00.0000, -2.353485364448887E+08, -3.735006825093716E+08, 2.497825831223834E+07,
2461057.500000000, A.D. 2026-Jan-17 00:00:00.0000, -2.263941270815854E+08, -3.782546178877016E+08, 2.542011673615308E+07,
2461064.500000000, A.D. 2026-Jan-24 00:00:00.0000, -2.173120541246826E+08, -3.827953095020897E+08, 2.584764200683881E+07,
2461071.500000000, A.D. 2026-Jan-31 00:00:00.0000, -2.081069175918941E+08, -3.871192780027734E+08, 2.626053105841808E+07,
2461078.500000000, A.D. 2026-Feb-07 00:00:00.0000, -1.987834153645092E+08, -3.912231167736257E+08, 2.665848507174419E+07,
2461085.500000000, A.D. 2026-Feb-14 00:00:00.0000, -1.893463431685243E+08, -3.951034948362372E+08, 2.704120959991415E+07,
2461092.500000000, A.D. 2026-Feb-21 00:00:00.0000, -1.798005938211813E+08, -3.987571594265433E+08, 2.740841467287031E+07,
2461099.500000000, A.D. 2026-Feb-28 00:00:00.0000, -1.701511568218279E+08, -4.021809370906248E+08, 2.775981507506044E+07,
2461106.500000000, A.D. 2026-Mar-07 00:00:00.0000, -1.604031203388158E+08, -4.053717352495649E+08, 2.809513082563056E+07,
2461113.500000000, A.D. 2026-Mar-14 00:00:00.0000, -1.505616728095423E+08, -4.083265465674059E+08, 2.841408741599315E+07,
2461120.500000000, A.D. 2026-Mar-21 00:00:00.0000, -1.406321023644727E+08, -4.110424532265868E+08, 2.871641587845433E+07,
2461127.500000000, A.D. 2026-Mar-28 00:00:00.0000, -1.306197960785103E+08, -4.135166300834464E+08, 2.900185295470606E+07,
2461134.500000000, A.D. 2026-Apr-04 00:00:00.0000, -1.205302396468011E+08, -4.157463476694842E+08, 2.927014134096570E+07,
2461141.500000000, A.D. 2026-Apr-11 00:00:00.0000, -1.103690172037677E+08, -4.177289753977916E+08, 2.952102995542884E+07,
2461148.500000000, A.D. 2026-Apr-18 00:00:00.0000, -1.001418111180053E+08, -4.194619849806221E+08, 2.975427421298324E+07,
2461155.500000000, A.D. 2026-Apr-25 00:00:00.0000, -8.985440170851071E+07, -4.209429540429984E+08, 2.996963630430235E+07,
2461162.500000000, A.D. 2026-May-02 00:00:00.0000, -7.951266684278964E+07, -4.221695699619831E+08, 3.016688547434659E+07,
2461169.500000000, A.D. 2026-May-09 00:00:00.0000, -6.912258128373419E+07, -4.231396339976451E+08, 3.034579828378533E+07,
2461176.500000000, A.D. 2026-May-16 00:00:00.0000, -5.869021539890228E+07, -4.238510655765350E+08, 3.050615883028618E+07,
2461183.500000000, A.D. 2026-May-23 00:00:00.0000, -4.822173317197659E+07, -4.243019057035399E+08, 3.064775900862780E+07,
2461190.500000000, A.D. 2026-May-30 00:00:00.0000, -3.772339158628654E+07, -4.244903191793105E+08, 3.077039902625175E+07,
2461197.500000000, A.D. 2026-Jun-06 00:00:00.0000, -2.720154168826189E+07, -4.244145988923077E+08, 3.087388793533045E+07,
2461204.500000000, A.D. 2026-Jun-13 00:00:00.0000, -1.666262765487940E+07, -4.240731719827659E+08, 3.095804386088964E+07,
2461211.500000000, A.D. 2026-Jun-20 00:00:00.0000, -6.113184356703714E+06, -4.234646049488924E+08, 3.102269420971733E+07,
2461218.500000000, A.D. 2026-Jun-27 00:00:00.0000, 4.440164894566842E+06, -4.225876080299930E+08, 3.106767598753549E+07,
2461225.500000000, A.D. 2026-Jul-04 00:00:00.0000, 1.499071042408720E+07, -4.214410396350637E+08, 3.109283616042221E+07,
2461232.500000000, A.D. 2026-Jul-11 00:00:00.0000, 2.553165836202113E+07, -4.200239109419814E+08, 3.109803202569321E+07,
2461239.500000000, A.D. 2026-Jul-18 00:00:00.0000, 3.605613300562598E+07, -4.183353906345909E+08, 3.108313158513509E+07,
2461246.500000000, A.D. 2026-Jul-25 00:00:00.0000, 4.655717941088929E+07, -4.163748097681143E+08, 3.104801391797884E+07,
2461253.500000000, A.D. 2026-Aug-01 00:00:00.0000, 5.702776627246147E+07, -4.141416668044631E+08, 3.099256954491922E+07,
2461260.500000000, A.D. 2026-Aug-08 00:00:00.0000, 6.746078931594704E+07, -4.116356328463318E+08, 3.091670076036526E+07,
2461267.500000000, A.D. 2026-Aug-15 00:00:00.0000, 7.784907562517045E+07, -4.088565566105840E+08, 3.082032193129000E+07,
2461274.500000000, A.D. 2026-Aug-22 00:00:00.0000, 8.818538815029973E+07, -4.058044679071478E+08, 3.070335993134998E+07,
2461281.500000000, A.D. 2026-Aug-29 00:00:00.0000, 9.846242811569026E+07, -4.024795809800064E+08, 3.056575480639404E+07,
2461288.500000000, A.D. 2026-Sep-05 00:00:00.0000, 1.086728374717476E+08, -3.988823005612829E+08, 3.040746023943123E+07,
$$EOE